{
    "links": {
        "self": "http://www.neowsapp.com/rest/v1/neo/3582517?api_key=iIulBulltgU6a56xZRHN4H3l9WmuAYTsLGpBGhQ2"
    },
    "id": "3582517",
    "neo_reference_id": "3582517",
    "name": "(2011 UW63)",
    "designation": "2011 UW63",
    "nasa_jpl_url": "http://ssd.jpl.nasa.gov/sbdb.cgi?sstr=3582517",
    "absolute_magnitude_h": 22.4,
    "estimated_diameter": {
        "kilometers": {
            "estimated_diameter_min": 0.0880146521,
            "estimated_diameter_max": 0.1968067451
        },
        "meters": {
            "estimated_diameter_min": 88.0146520901,
            "estimated_diameter_max": 196.8067450894
        },
        "miles": {
            "estimated_diameter_min": 0.0546897524,
            "estimated_diameter_max": 0.122290004
        },
        "feet": {
            "estimated_diameter_min": 288.7619911632,
            "estimated_diameter_max": 645.6914415591
        }
    },
    "is_potentially_hazardous_asteroid": false,
    "close_approach_data": [
        {
            "close_approach_date": "2011-10-21",
            "close_approach_date_full": "2011-Oct-21 04:58",
            "epoch_date_close_approach": 1319173080000,
            "relative_velocity": {
                "kilometers_per_second": "15.514060696",
                "kilometers_per_hour": "55850.6185057278",
                "miles_per_hour": "34703.4023709618"
            },
            "miss_distance": {
                "astronomical": "0.0910178238",
                "lunar": "35.4059334582",
                "kilometers": "13616072.572515306",
                "miles": "8460635.1716949828"
            },
            "orbiting_body": "Earth"
        }
    ],
    "orbital_data": {
        "orbit_id": "7",
        "orbit_determination_date": "2017-04-06 08:52:20",
        "first_observation_date": "2011-10-21",
        "last_observation_date": "2011-10-30",
        "data_arc_in_days": 9,
        "observations_used": 39,
        "orbit_uncertainty": "9",
        "minimum_orbit_intersection": ".0773917",
        "jupiter_tisserand_invariant": "3.914",
        "epoch_osculation": "2455857.5",
        "eccentricity": ".3990109920267564",
        "semi_major_axis": "1.758776388442924",
        "inclination": "26.36970218711475",
        "ascending_node_longitude": "27.92034819650518",
        "orbital_period": "851.950509052989",
        "perihelion_distance": "1.057005276937077",
        "perihelion_argument": "19.25204261818655",
        "aphelion_distance": "2.460547499948771",
        "perihelion_time": "2455871.634090631053",
        "mean_anomaly": "354.0275020988777",
        "mean_motion": ".4225597569043873",
        "equinox": "J2000",
        "orbit_class": {
            "orbit_class_type": "AMO",
            "orbit_class_description": "Near-Earth asteroid orbits similar to that of 1221 Amor",
            "orbit_class_range": "1.017 AU < q (perihelion) < 1.3 AU"
        }
    },
    "is_sentry_object": false
}